STARLINK-2607
1 28391C 21038AQ  21325.11006030 -.00032774  00000-0 -21967-2 0  3258
2 28391  53.0527 187.7317 0001814  85.1817 120.7885 15.06417409    16
